#dP2018 11 16  0  0  0.00000000      96 __u+U ITR00 FIT  IAC
## 2027 432000.00000000   900.00000000 58438 0.0000000000000
+   90   C01C02C03C04C05C06C07C08C09C10C12C13C14E01E02E03E04
+        E05E07E08E09E11E12E14E18E19E21E24E25E26E27E30E31G01
+        G02G03G05G06G07G08G09G10G11G12G13G14G15G16G17G18G19
+        G20G21G22G23G24G25G26G27G28G29G30G31G32J01J02J03R01
+        R02R03R04R05R07R08R09R10R11R13R14R15R16R17R18R19R20
+        R21R22R23R24R26  0  0  0  0  0  0  0  0  0  0  0  0
++        12 12 12 12 12  9  9  9  8  8  8  8  8  6  6  6  6
++         6  6  6  7  7  7  6  6  6  6  6  7  6  6  6  7  3
++         3  3  3  3  3  3  3  3  3  3  3  3  3  3  3  3  3
++         3  3  3  3  3  3  3  3  3  3  3  3  3 10 10 11  6
++         5  5  5  5  5  6  5  5  5  5  5  5  5  5  5  5  5
++         5  5  5  6  8  0  0  0  0  0  0  0  0  0  0  0  0
%c M  cc GPS ccc cccc cccc cccc cccc ccccc ccccc ccccc ccccc
%c cc cc ccc ccc cccc cccc cccc cccc ccccc ccccc ccccc ccccc
%f  0.0000000  0.000000000  0.00000000000  0.000000000000000
%f  0.0000000  0.000000000  0.00000000000  0.000000000000000
%i    0    0    0    0      0      0      0      0         0
%i    0    0    0    0      0      0      0      0         0
/* INFORMATION & ANALYSIS CENTER (IAC) OF MCC   (RAPID DATA)
/* S/V CLOCKS ARE ALIGNED TO GPS & GLONASS TIME RESPECTIVELY
/* USING THE BROADCAST EPHEMERIS                            
/* PCV:IGS14_2022 OL/AL:FES2004  NONE     YN ORB:CoN CLK:CoN
*  2018 11 16 12 45  0.00000000
PC01 -32333.454721  27090.608962    277.216468   -106.234299
PC02   4329.852282  41911.875915   -951.935608   -103.520675
PC03 -14744.022426  39470.903990   -121.106406    -48.591304
PC04 -39644.819517  14451.905119     42.326457    -12.717508
PC05  21835.732890  36037.360928  -1072.741697    131.103351
PC06 -21173.480731  36224.980821   1479.661444     55.175948
PC07  -8240.165214  29576.807065  29204.966724   -137.460054
PC08 -20577.067847  19019.521322 -31536.518907     33.781243
PC09  -9530.307399  36858.611685  17932.577991    288.875572
PC10   5470.085801  37186.208073  19630.153295   -243.189538
PC12 -25163.706428   7187.933225   9892.148907    215.215955
PC13  -3405.774792  23325.579233 -34931.090624   -380.108265
PC14 -10497.136822  20717.200867 -15383.478428    669.355063
PE01 -18673.936637 -22964.106964    142.985014   -479.140530
PE02  18683.130845  22954.008956   -162.079066     35.388456
PE03   8764.353396  18845.808272  21076.721562   -100.333139
PE04 -18296.519996   1486.114131 -23222.198091   -159.820139
PE05  -5951.861614  28241.098877   6572.794295    158.520868
PE07  17138.413580 -21087.276104  11728.275153    -76.426799
PE08  18161.035376  -1749.260796  23303.916018   6461.762230
PE09 -16890.286503  21273.562508 -11779.408405   6616.079366
PE11 -23693.853510  12480.688561 -12605.163282   5708.682500
PE12 -28875.420973    406.796188   6485.427650   5510.557275
PE14  25615.604451  -3682.120830 -18064.659921   6488.684149
PE18 -21134.753105  12603.070691   5907.359900   5752.049628
PE19  -7357.492308 -20374.865057 -20175.982608    -10.595722
PE21  -3981.849542 -23359.472146 -17730.115355   -504.772515
PE24 -12515.522747  10430.115904  24711.166958   6386.466663
PE25   3946.146411  23354.895186  17768.429140   1981.677389
PE26   4893.073708 -16996.017021  23736.255888   5242.053241
PE27  12877.866523  -9896.362836 -24735.597619    589.312823
PE30  22043.599095   8911.203410 -17626.281022   5345.583760
PE31 -22172.952280  -9333.719391  17255.606094    982.330035
PG01  18942.558211  13677.353990 -13079.933637   -115.140672
PG02   3042.449338 -15373.175601  22024.757044    -60.202319
PG03  13447.710538  20691.871874   9871.007292    160.857836
PG05  -1788.472269 -24952.977193   8490.013296     -0.166864
PG06  18001.880587  -8250.065367  17743.444330    332.587304
PG07  26092.544615   6120.687076   -576.313218     87.479579
PG08    510.534010  18590.156157 -18848.346094   -122.375442
PG09  18073.331767    671.309956  19411.191464    491.983774
PG10 -13432.176580   7559.396289 -21573.470997    163.596416
PG11  14128.606156  12418.365110 -19224.936240   -699.235683
PG12  -9926.574044 -23836.768371   6421.893242    291.702358
PG13   8084.441511 -20340.802009 -15140.740681    -84.326323
PG14 -18508.996889  18831.718869   2047.862987    -95.743244
PG15  -5925.753737 -16659.156024 -19956.215819   -339.596652
PG16  -1346.824348  24419.112867   9652.314755     -1.429707
PG17  21308.079727 -13729.688379  -7321.017400    -30.748649
PG18   9750.716762  15897.631687 -19443.213559     79.903819
PG19  19268.624305 -18275.858794   1581.754873   -383.174971
PG20 -17404.810057  -2454.129031 -20065.383940    518.766757
PG21 -26141.591812  -2544.622998  -2860.443041   -303.418009
PG22  11072.137052  24054.411883   2532.231426   -575.319266
PG23  12374.036015   9763.597334  21691.155327   -206.058590
PG24 -15024.786190 -14915.106048 -16355.866230    -58.224625
PG25 -15553.374945 -14758.064217  15646.526189   -677.631479
PG26  -6934.820973  18691.810569  17469.984470     40.974789
PG27  -9114.864243  21718.951924 -12086.265228    -18.844611
PG28  13745.212788  -4575.540597 -21641.567897    754.757408
PG29 -16467.422964  -3236.703160  20564.766574    334.988539
PG30  24016.619003  -1765.528750 -11372.781514     -5.620871
PG31 -16191.836158   9428.296792  19014.630965     79.319051
PG32 -20471.841549  15589.407329  -6337.828083   -355.014190
PJ01 -18338.812844  30355.211026 -18205.148801   -269.532175
PJ02 -25167.067046  21355.456741  30890.428528      0.861711
PJ03 -33447.489361  25554.628906   6291.961854      0.945573
PR01  -7165.151216  23507.682714  -6869.013050     35.048465
PR02   2373.401734  21786.152097  13039.886473    339.809819
PR03   9815.697078   6565.459012  22636.499254    149.000664
PR04  11386.002430 -12942.985340  18817.087517    283.949604
PR05   6465.588411 -24236.286161   4697.011247     15.584760
PR07  -9892.917729  -6164.614204 -22666.175949    -51.704026
PR08 -11463.685683  12237.361662 -19175.909034     20.450566
PR09 -15112.300481 -18503.961947  -8828.441192     38.963064
PR10 -20506.051688 -13082.876015   7532.151483     35.811099
PR11 -14573.360366    796.836718  20928.385021    -47.244491
PR13  14964.594794  18255.154386   9664.634697    -16.894992
PR14  20684.456442  12946.335895  -7435.528914     33.055042
PR15  17022.329342   3255.218246 -18658.895911    -19.222411
PR16    670.285314 -13029.826308 -21954.821961    106.534327
PR17  19786.147118    774.493505 -16043.304587    180.718101
PR18  24090.257771  -8464.366305   -247.696026     27.253237
PR19  15447.303298 -12674.804943  15850.774070    -61.566471
PR20  -3825.278945  -9752.786575  23264.674466   -359.256079
PR21 -20115.476779   -415.660544  15702.993134    -14.803082
PR22 -23577.491041   9329.741603  -2127.608802    -64.674680
PR23 -11166.267109  13011.709026 -18894.219186    191.043177
PR24   5460.492390   9185.933251 -23184.638537   -173.828683
PR26  -2329.567271 -10317.715848  23222.458040      4.787948
EOF
